[{"OBJECT_NAME":"ONEWEB-0428","OBJECT_ID":"2022-012H","EPOCH":"2026-03-09T23:24:56.861568","MEAN_MOTION":13.10370534,"ECCENTRICITY":0.00018071,"INCLINATION":87.877,"RA_OF_ASC_NODE":56.0294,"ARG_OF_PERICENTER":87.7832,"MEAN_ANOMALY":272.3502,"EPHEMERIS_TYPE":0,"CLASSIFICATION_TYPE":"U","NORAD_CAT_ID":51629,"ELEMENT_SET_NO":999,"REV_AT_EPOCH":19629,"BSTAR":-0.0013170863,"MEAN_MOTION_DOT":-4.47e-6,"MEAN_MOTION_DDOT":0},{"OBJECT_NAME":"UNKNOWN","OBJECT_ID":"","EPOCH":"2026-03-02T01:11:11.069952","MEAN_MOTION":13.04495247,"ECCENTRICITY":0.00305057,"INCLINATION":90.2299,"RA_OF_ASC_NODE":354.6364,"ARG_OF_PERICENTER":126.8857,"MEAN_ANOMALY":233.507,"EPHEMERIS_TYPE":0,"CLASSIFICATION_TYPE":"U","NORAD_CAT_ID":270176,"ELEMENT_SET_NO":999,"REV_AT_EPOCH":29681,"BSTAR":0.0018302714,"MEAN_MOTION_DOT":5.96e-6,"MEAN_MOTION_DDOT":0}]
